CCSDS_OMM_VERS = 2.0
CREATION_DATE  = 
ORIGINATOR     = 

OBJECT_NAME    = SL-3 R/B
OBJECT_ID      = 1982-079B
CENTER_NAME    = EARTH
REF_FRAME      = TEME
TIME_SYSTEM    = UTC
MEAN_ELEMENT_THEORY = SGP/SGP4

EPOCH          = 2026-01-11T14:59:40.262784
MEAN_MOTION    = 15.24004967
ECCENTRICITY   = .00256098
INCLINATION    = 81.1462
RA_OF_ASC_NODE = 260.4259
ARG_OF_PERICENTER = 2.0516
MEAN_ANOMALY   = 358.0817

EPHEMERIS_TYPE = 0
CLASSIFICATION_TYPE = U
NORAD_CAT_ID   = 13403
ELEMENT_SET_NO = 999
REV_AT_EPOCH   = 36900
BSTAR          = .24418356E-3
MEAN_MOTION_DOT = .5994E-4
MEAN_MOTION_DDOT = 0

CCSDS_OMM_VERS = 2.0
CREATION_DATE  = 
ORIGINATOR     = 

OBJECT_NAME    = SL-14 R/B
OBJECT_ID      = 1982-092B
CENTER_NAME    = EARTH
REF_FRAME      = TEME
TIME_SYSTEM    = UTC
MEAN_ELEMENT_THEORY = SGP/SGP4

EPOCH          = 2026-01-11T13:35:36.037248
MEAN_MOTION    = 14.86591138
ECCENTRICITY   = .00215285
INCLINATION    = 82.5668
RA_OF_ASC_NODE = 194.8154
ARG_OF_PERICENTER = 128.1721
MEAN_ANOMALY   = 292.7370

EPHEMERIS_TYPE = 0
CLASSIFICATION_TYPE = U
NORAD_CAT_ID   = 13553
ELEMENT_SET_NO = 999
REV_AT_EPOCH   = 32044
BSTAR          = .5710558E-4
MEAN_MOTION_DOT = .533E-5
MEAN_MOTION_DDOT = 0

CCSDS_OMM_VERS = 2.0
CREATION_DATE  = 
ORIGINATOR     = 

OBJECT_NAME    = SL-3 R/B
OBJECT_ID      = 1983-010B
CENTER_NAME    = EARTH
REF_FRAME      = TEME
TIME_SYSTEM    = UTC
MEAN_ELEMENT_THEORY = SGP/SGP4

EPOCH          = 2026-01-11T15:35:54.018528
MEAN_MOTION    = 15.44407457
ECCENTRICITY   = .00162229
INCLINATION    = 81.1035
RA_OF_ASC_NODE = 72.0840
ARG_OF_PERICENTER = 243.0088
MEAN_ANOMALY   = 116.9500

EPHEMERIS_TYPE = 0
CLASSIFICATION_TYPE = U
NORAD_CAT_ID   = 13819
ELEMENT_SET_NO = 999
REV_AT_EPOCH   = 34913
BSTAR          = .29322589E-3
MEAN_MOTION_DOT = .13649E-3
MEAN_MOTION_DDOT = 0

CCSDS_OMM_VERS = 2.0
CREATION_DATE  = 
ORIGINATOR     = 

OBJECT_NAME    = SL-3 R/B
OBJECT_ID      = 1983-075B
CENTER_NAME    = EARTH
REF_FRAME      = TEME
TIME_SYSTEM    = UTC
MEAN_ELEMENT_THEORY = SGP/SGP4

EPOCH          = 2026-01-11T14:45:35.808192
MEAN_MOTION    = 15.36867664
ECCENTRICITY   = .00244698
INCLINATION    = 97.6119
RA_OF_ASC_NODE = 14.1180
ARG_OF_PERICENTER = 75.2622
MEAN_ANOMALY   = 285.1332

EPHEMERIS_TYPE = 0
CLASSIFICATION_TYPE = U
NORAD_CAT_ID   = 14208
ELEMENT_SET_NO = 999
REV_AT_EPOCH   = 32138
BSTAR          = .31653169E-3
MEAN_MOTION_DOT = .11439E-3
MEAN_MOTION_DDOT = 0

CCSDS_OMM_VERS = 2.0
CREATION_DATE  = 
ORIGINATOR     = 

OBJECT_NAME    = COSMOS 1536
OBJECT_ID      = 1984-013A
CENTER_NAME    = EARTH
REF_FRAME      = TEME
TIME_SYSTEM    = UTC
MEAN_ELEMENT_THEORY = SGP/SGP4

EPOCH          = 2026-01-11T12:12:59.503392
MEAN_MOTION    = 15.22973148
ECCENTRICITY   = .00156147
INCLINATION    = 82.5457
RA_OF_ASC_NODE = 164.6322
ARG_OF_PERICENTER = 121.3462
MEAN_ANOMALY   = 238.9305

EPHEMERIS_TYPE = 0
CLASSIFICATION_TYPE = U
NORAD_CAT_ID   = 14699
ELEMENT_SET_NO = 999
REV_AT_EPOCH   = 26391
BSTAR          = .32399277E-3
MEAN_MOTION_DOT = .7669E-4
MEAN_MOTION_DDOT = 0

CCSDS_OMM_VERS = 2.0
CREATION_DATE  = 
ORIGINATOR     = 

OBJECT_NAME    = SL-14 R/B
OBJECT_ID      = 1984-027B
CENTER_NAME    = EARTH
REF_FRAME      = TEME
TIME_SYSTEM    = UTC
MEAN_ELEMENT_THEORY = SGP/SGP4

EPOCH          = 2026-01-11T12:32:19.860576
MEAN_MOTION    = 14.85912537
ECCENTRICITY   = .00184574
INCLINATION    = 82.5432
RA_OF_ASC_NODE = 298.6290
ARG_OF_PERICENTER = 158.0985
MEAN_ANOMALY   = 202.1024

EPHEMERIS_TYPE = 0
CLASSIFICATION_TYPE = U
NORAD_CAT_ID   = 14820
ELEMENT_SET_NO = 999
REV_AT_EPOCH   = 23914
BSTAR          = .53393961E-4
MEAN_MOTION_DOT = .491E-5
MEAN_MOTION_DDOT = 0

CCSDS_OMM_VERS = 2.0
CREATION_DATE  = 
ORIGINATOR     = 

OBJECT_NAME    = SL-8 R/B
OBJECT_ID      = 1985-006B
CENTER_NAME    = EARTH
REF_FRAME      = TEME
TIME_SYSTEM    = UTC
MEAN_ELEMENT_THEORY = SGP/SGP4

EPOCH          = 2026-01-11T11:22:39.806112
MEAN_MOTION    = 14.37744302
ECCENTRICITY   = .00197341
INCLINATION    = 74.0461
RA_OF_ASC_NODE = 6.4242
ARG_OF_PERICENTER = 293.5625
MEAN_ANOMALY   = 185.4348

EPHEMERIS_TYPE = 0
CLASSIFICATION_TYPE = U
NORAD_CAT_ID   = 15483
ELEMENT_SET_NO = 999
REV_AT_EPOCH   = 14580
BSTAR          = .1200974E-3
MEAN_MOTION_DOT = .336E-5
MEAN_MOTION_DDOT = 0

CCSDS_OMM_VERS = 2.0
CREATION_DATE  = 
ORIGINATOR     = 

OBJECT_NAME    = SL-12 R/B(2)
OBJECT_ID      = 1985-042D
CENTER_NAME    = EARTH
REF_FRAME      = TEME
TIME_SYSTEM    = UTC
MEAN_ELEMENT_THEORY = SGP/SGP4

EPOCH          = 2026-01-11T13:45:03.454560
MEAN_MOTION    = 14.21961643
ECCENTRICITY   = .00365698
INCLINATION    = 71.1063
RA_OF_ASC_NODE = 208.3949
ARG_OF_PERICENTER = 217.4304
MEAN_ANOMALY   = 203.1782

EPHEMERIS_TYPE = 0
CLASSIFICATION_TYPE = U
NORAD_CAT_ID   = 15772
ELEMENT_SET_NO = 999
REV_AT_EPOCH   = 10627
BSTAR          = .70530231E-4
MEAN_MOTION_DOT = .109E-5
MEAN_MOTION_DDOT = 0

CCSDS_OMM_VERS = 2.0
CREATION_DATE  = 
ORIGINATOR     = 

OBJECT_NAME    = SL-14 R/B
OBJECT_ID      = 1985-069B
CENTER_NAME    = EARTH
REF_FRAME      = TEME
TIME_SYSTEM    = UTC
MEAN_ELEMENT_THEORY = SGP/SGP4

EPOCH          = 2026-01-11T10:58:29.721216
MEAN_MOTION    = 14.86362854
ECCENTRICITY   = .00194237
INCLINATION    = 82.5262
RA_OF_ASC_NODE = 78.7644
ARG_OF_PERICENTER = 26.4304
MEAN_ANOMALY   = 333.7899

EPHEMERIS_TYPE = 0
CLASSIFICATION_TYPE = U
NORAD_CAT_ID   = 15945
ELEMENT_SET_NO = 999
REV_AT_EPOCH   = 16433
BSTAR          = .53040179E-4
MEAN_MOTION_DOT = .493E-5
MEAN_MOTION_DDOT = 0

CCSDS_OMM_VERS = 2.0
CREATION_DATE  = 
ORIGINATOR     = 

OBJECT_NAME    = SL-16 R/B
OBJECT_ID      = 1985-097B
CENTER_NAME    = EARTH
REF_FRAME      = TEME
TIME_SYSTEM    = UTC
MEAN_ELEMENT_THEORY = SGP/SGP4

EPOCH          = 2026-01-11T15:22:15.901248
MEAN_MOTION    = 14.16591993
ECCENTRICITY   = .00084757
INCLINATION    = 71.0027
RA_OF_ASC_NODE = 260.6559
ARG_OF_PERICENTER = 328.1378
MEAN_ANOMALY   = 49.8397

EPHEMERIS_TYPE = 0
CLASSIFICATION_TYPE = U
NORAD_CAT_ID   = 16182
ELEMENT_SET_NO = 999
REV_AT_EPOCH   = 7915
BSTAR          = .83122707E-4
MEAN_MOTION_DOT = .118E-5
MEAN_MOTION_DDOT = 0

CCSDS_OMM_VERS = 2.0
CREATION_DATE  = 
ORIGINATOR     = 

OBJECT_NAME    = SL-14 R/B
OBJECT_ID      = 1986-006B
CENTER_NAME    = EARTH
REF_FRAME      = TEME
TIME_SYSTEM    = UTC
MEAN_ELEMENT_THEORY = SGP/SGP4

EPOCH          = 2026-01-11T14:00:22.896576
MEAN_MOTION    = 14.86717997
ECCENTRICITY   = .00782657
INCLINATION    = 82.5288
RA_OF_ASC_NODE = 313.4726
ARG_OF_PERICENTER = 101.7297
MEAN_ANOMALY   = 259.2714

EPHEMERIS_TYPE = 0
CLASSIFICATION_TYPE = U
NORAD_CAT_ID   = 16496
ELEMENT_SET_NO = 999
REV_AT_EPOCH   = 14072
BSTAR          = .71628399E-4
MEAN_MOTION_DOT = .702E-5
MEAN_MOTION_DDOT = 0

CCSDS_OMM_VERS = 2.0
CREATION_DATE  = 
ORIGINATOR     = 

OBJECT_NAME    = COSMOS 1743
OBJECT_ID      = 1986-034A
CENTER_NAME    = EARTH
REF_FRAME      = TEME
TIME_SYSTEM    = UTC
MEAN_ELEMENT_THEORY = SGP/SGP4

EPOCH          = 2026-01-11T14:44:06.186336
MEAN_MOTION    = 15.54232481
ECCENTRICITY   = .00052299
INCLINATION    = 82.5351
RA_OF_ASC_NODE = 133.5178
ARG_OF_PERICENTER = 138.4020
MEAN_ANOMALY   = 221.7632

EPHEMERIS_TYPE = 0
CLASSIFICATION_TYPE = U
NORAD_CAT_ID   = 16719
ELEMENT_SET_NO = 999
REV_AT_EPOCH   = 17137
BSTAR          = .52478552E-3
MEAN_MOTION_DOT = .34346E-3
MEAN_MOTION_DDOT = 0

