SL-3 R/B                
1 13403U 82079B   26011.62477156  .00005994  00000+0  24418-3 0  9993
2 13403  81.1462 260.4259 0025609   2.0516 358.0817 15.24004967369007
SL-14 R/B               
1 13553U 82092B   26011.56638932  .00000533  00000+0  57106-4 0  9993
2 13553  82.5668 194.8154 0021528 128.1721 292.7370 14.86591138320445
SL-3 R/B                
1 13819U 83010B   26011.64993077  .00013649  00000+0  29323-3 0  9993
2 13819  81.1035  72.0840 0016222 243.0088 116.9500 15.44407457349134
SL-3 R/B                
1 14208U 83075B   26011.61499778  .00011439  00000+0  31653-3 0  9997
2 14208  97.6119  14.1180 0024469  75.2622 285.1332 15.36867664321387
COSMOS 1536             
1 14699U 84013A   26011.50902203  .00007669  00000+0  32399-3 0  9992
2 14699  82.5457 164.6322 0015614 121.3462 238.9305 15.22973148263915
SL-14 R/B               
1 14820U 84027B   26011.52245209  .00000491  00000+0  53394-4 0  9996
2 14820  82.5432 298.6290 0018457 158.0985 202.1024 14.85912537239143
SL-8 R/B                
1 15483U 85006B   26011.47407183  .00000336  00000+0  12010-3 0  9992
2 15483  74.0461   6.4242 0019734 293.5625 185.4348 14.37744302145805
SL-12 R/B(2)            
1 15772U 85042D   26011.57295665  .00000109  00000+0  70530-4 0  9994
2 15772  71.1063 208.3949 0036569 217.4304 203.1782 14.21961643106273
SL-14 R/B               
1 15945U 85069B   26011.45728844  .00000493  00000+0  53040-4 0  9995
2 15945  82.5262  78.7644 0019423  26.4304 333.7899 14.86362854164331
SL-16 R/B               
1 16182U 85097B   26011.64046182  .00000118  00000+0  83123-4 0  9998
2 16182  71.0027 260.6559 0008475 328.1378  49.8397 14.16591993 79156
SL-14 R/B               
1 16496U 86006B   26011.58359834  .00000702  00000+0  71628-4 0  9997
2 16496  82.5288 313.4726 0078265 101.7297 259.2714 14.86717997140725
COSMOS 1743             
1 16719U 86034A   26011.61396049  .00034346  00000+0  52479-3 0  9992
2 16719  82.5351 133.5178 0005229 138.4020 221.7632 15.54232481171371
